[{"OBJECT_NAME":"ICESAT-2","OBJECT_ID":"2018-070A","EPOCH":"2026-03-09T22:54:12.225888","MEAN_MOTION":15.28328617,"ECCENTRICITY":0.00038245,"INCLINATION":91.9993,"RA_OF_ASC_NODE":264.2397,"ARG_OF_PERICENTER":123.8941,"MEAN_ANOMALY":236.2673,"EPHEMERIS_TYPE":0,"CLASSIFICATION_TYPE":"U","NORAD_CAT_ID":43613,"ELEMENT_SET_NO":999,"REV_AT_EPOCH":41730,"BSTAR":0.00014022643,"MEAN_MOTION_DOT":3.87e-5,"MEAN_MOTION_DDOT":0},{"OBJECT_NAME":"STARLINK-31692","OBJECT_ID":"2024-076P","EPOCH":"2026-03-09T04:19:37.028352","MEAN_MOTION":15.27578376,"ECCENTRICITY":0.00014704,"INCLINATION":43.0042,"RA_OF_ASC_NODE":11.9462,"ARG_OF_PERICENTER":261.8483,"MEAN_ANOMALY":98.2202,"EPHEMERIS_TYPE":0,"CLASSIFICATION_TYPE":"U","NORAD_CAT_ID":59577,"ELEMENT_SET_NO":999,"REV_AT_EPOCH":10642,"BSTAR":4.2720269e-5,"MEAN_MOTION_DOT":9.13e-6,"MEAN_MOTION_DDOT":0}]
